     2.100          NAVIGATION                              RINEX VERSION / TYPE
fic2rin                                 05/20/2011 00:06:09 PGM / RUN BY / DATE
                                                            END OF HEADER
30 11  5 19 20  0  0.0  .104913488030D-05  .432009983342D-11  .000000000000D+00
     .420000000000D+02 -.998125000000D+02  .433946647048D-08 -.567915754165D+00
    -.511109828949D-05  .127124884166D-01  .958144664764D-05  .515368057632D+04
     .417600000000D+06 -.158324837685D-06 -.288089930598D+01  .484287738800D-07
     .960877366753D+00  .193781250000D+03  .152517353097D+01 -.813212444991D-08
     .132148361653D-10  .100000000000D+01  .163600000000D+04  .000000000000D+00
     .965000000000D+01  .630000000000D+02 -.838190317154D-08  .420000000000D+02
     .410406000000D+06  .400000000000D+01
31 11  5 19 20  0  0.0  .827820040286D-04  .568434188608D-11  .000000000000D+00
     .670000000000D+02 -.681875000000D+02  .437803950578D-08  .308794773289D+01
    -.333599746227D-05  .765182077885D-02  .153481960297D-05  .515366217041D+04
     .417600000000D+06  .707805156708D-07  .240794988834D+01  .175088644028D-06
     .979615629883D+00  .360781250000D+03 -.955400273148D+00 -.811033782812D-08
    -.174292974288D-09  .100000000000D+01  .163600000000D+04  .000000000000D+00
     .240000000000D+01  .000000000000D+00 -.130385160446D-07  .670000000000D+02
     .410406000000D+06  .400000000000D+01
 4 11  5 19 19 59 44.0  .120110344142D-03  .105728759081D-10  .000000000000D+00
     .350000000000D+02 -.157812500000D+02  .536236622122D-08  .152272367130D+01
    -.804662704468D-06  .957068637945D-02  .628642737865D-05  .515363782692D+04
     .417584000000D+06 -.139698386192D-06 -.743013096404D+00  .298023223877D-07
     .937985133109D+00  .250531250000D+03  .723348101003D+00 -.840106422376D-08
    -.405731186047D-09  .100000000000D+01  .163600000000D+04  .000000000000D+00
     .240000000000D+01  .000000000000D+00 -.605359673500D-08  .350000000000D+02
     .411126000000D+06  .400000000000D+01
31 11  5 19 19 59 44.0  .827782787383D-04  .557065504836D-11  .000000000000D+00
     .100000000000D+01 -.681875000000D+02  .437803950578D-08  .308561400990D+01
    -.333599746227D-05  .765182089526D-02  .153481960297D-05  .515366216850D+04
     .417584000000D+06  .707805156708D-07  .240795002586D+01  .175088644028D-06
     .979615606476D+00  .360781250000D+03 -.955400293629D+00 -.811033782812D-08
    -.174292974288D-09  .100000000000D+01  .163600000000D+04  .000000000000D+00
     .240000000000D+01  .000000000000D+00 -.130385160446D-07  .100000000000D+01
     .415206000000D+06  .400000000000D+01
31 11  5 19 21 59 44.0  .828187912703D-04  .557065504836D-11  .000000000000D+00
     .200000000000D+01 -.655625000000D+02  .442875590403D-08 -.214736875972D+01
    -.323168933392D-05  .765204557683D-02  .147148966789D-05  .515366189194D+04
     .424784000000D+06 -.931322574615D-07  .240789161739D+01  .227242708206D-06
     .979614071875D+00  .362750000000D+03 -.955415481644D+00 -.819105547605D-08
    -.168578450541D-09  .100000000000D+01  .163600000000D+04  .000000000000D+00
     .240000000000D+01  .000000000000D+00 -.130385160446D-07  .200000000000D+01
     .417606000000D+06  .400000000000D+01
 2 11  5 19 22  0  0.0  .337259378284D-03  .204636307899D-11  .000000000000D+00
     .440000000000D+02 -.155625000000D+02  .539843915237D-08 -.576264864636D+00
    -.860542058945D-06  .102576159406D-01  .577792525291D-05  .515374465370D+04
     .424800000000D+06  .277534127235D-06 -.760459582388D+00 -.260770320892D-07
     .938877780851D+00  .257531250000D+03 -.299690525425D+01 -.843999441679D-08
    -.362515100209D-09  .100000000000D+01  .163600000000D+04  .000000000000D+00
     .240000000000D+01  .000000000000D+00 -.172294676304D-07  .440000000000D+02
     .417606000000D+06  .400000000000D+01
 3 11  5 19 22  0  0.0  .717288814485D-03  .500222085975D-11  .000000000000D+00
     .300000000000D+02  .403125000000D+01  .542058293189D-08 -.478421784553D+00
     .340864062309D-06  .141864200123D-01  .851415097713D-05  .515365265083D+04
     .424800000000D+06 -.577419996262D-07 -.191875941313D+01  .165775418282D-06
     .928490117443D+00  .197437500000D+03  .108884143123D+01 -.858000024859D-08
     .435375277985D-09  .100000000000D+01  .163600000000D+04  .000000000000D+00
     .240000000000D+01  .000000000000D+00 -.465661287308D-08  .300000000000D+02
     .417606000000D+06  .400000000000D+01
 4 11  5 19 22  0  0.0  .120186712593D-03  .105728759081D-10  .000000000000D+00
     .360000000000D+02 -.190000000000D+02  .528593446610D-08  .257519684205D+01
    -.111386179924D-05  .957030733116D-02  .591017305851D-05  .515363925362D+04
     .424800000000D+06 -.335276126862D-07 -.743073509069D+00 -.128522515297D-06
     .937983155243D+00  .254937500000D+03  .723417219494D+00 -.822284251440D-08
    -.355729103259D-09  .100000000000D+01  .163600000000D+04  .000000000000D+00
     .240000000000D+01  .000000000000D+00 -.605359673500D-08  .360000000000D+02
     .417606000000D+06  .400000000000D+01
 5 11  5 19 22  0  0.0 -.162128824741D-03 -.568434188608D-11  .000000000000D+00
     .470000000000D+02  .612812500000D+02  .432946605392D-08  .132754292446D+01
     .319816172123D-05  .222923944239D-02  .109188258648D-04  .515367538261D+04
     .424800000000D+06  .186264514923D-07  .300871131622D+00 -.558793544769D-08
     .954748233005D+00  .165843750000D+03  .223870660883D+00 -.778889586735D-08
    -.351443210449D-09  .100000000000D+01  .163600000000D+04  .000000000000D+00
     .240000000000D+01  .000000000000D+00 -.102445483208D-07  .470000000000D+02
     .417606000000D+06  .400000000000D+01
 6 11  5 19 22  0  0.0  .400326680392D-03 -.927684595808D-10  .000000000000D+00
     .640000000000D+02  .156250000000D+00  .519093050881D-08  .156520361877D+01
     .540167093277D-07  .676083576400D-02  .786595046520D-05  .515363988495D+04
     .424800000000D+06  .149011611938D-06 -.184515800036D+01  .186264514923D-08
     .935570064557D+00  .207875000000D+03 -.795612257427D+00 -.817212611614D-08
     .372872674501D-09  .100000000000D+01  .163600000000D+04  .000000000000D+00
     .240000000000D+01  .000000000000D+00 -.512227416039D-08  .640000000000D+02
     .417606000000D+06  .400000000000D+01
 7 11  5 19 22  0  0.0  .115185976028D-04  .125055521494D-11  .000000000000D+00
     .112000000000D+03 -.681875000000D+02  .448982987658D-08 -.213331915927D+01
    -.358186662197D-05  .441988452803D-02  .181235373020D-05  .515366037178D+04
     .424800000000D+06 -.931322574615D-08  .240666690626D+01 -.141561031342D-06
     .974458660789D+00  .354343750000D+03 -.313337496729D+01 -.826570144250D-08
    -.132148361653D-09  .100000000000D+01  .163600000000D+04  .000000000000D+00
     .340000000000D+01  .000000000000D+00 -.107102096081D-07  .112000000000D+03
     .417606000000D+06  .400000000000D+01
 8 11  5 19 22  0  0.0  .798841938376D-05  .113686837722D-12  .000000000000D+00
     .118000000000D+03 -.894062500000D+02  .398623747136D-08 -.266452764802D+01
    -.455230474472D-05  .115757755702D-01  .261142849922D-05  .515359160423D+04
     .424800000000D+06 -.210478901863D-06  .248203140888D+01 -.145286321640D-06
     .996213832579D+00  .351187500000D+03 -.307746444146D+01 -.786997067301D-08
    -.183221917643D-09  .100000000000D+01  .163600000000D+04  .000000000000D+00
     .240000000000D+01  .000000000000D+00 -.419095158577D-08  .118000000000D+03
     .417606000000D+06  .400000000000D+01
 9 11  5 19 22  0  0.0  .809724442661D-04  .238742359215D-11  .000000000000D+00
     .280000000000D+02 -.743750000000D+02  .430946522081D-08 -.284107994129D+01
    -.382401049137D-05  .173605674645D-01  .547617673874D-06  .515366991997D+04
     .424800000000D+06  .240281224251D-06  .237816251071D+01  .119209289551D-06
     .983356864395D+00  .378218750000D+03  .156734269613D+01 -.803176312660D-08
    -.878608026122D-10  .100000000000D+01  .163600000000D+04  .000000000000D+00
     .240000000000D+01  .000000000000D+00 -.558793544769D-08  .280000000000D+02
     .417606000000D+06  .400000000000D+01
10 11  5 19 22  0  0.0 -.108545646071D-05 -.113686837722D-11  .000000000000D+00
     .470000000000D+02  .628750000000D+02  .447911514455D-08  .156465273356D+01
     .326335430145D-05  .101436669938D-01  .109579414129D-04  .515361310959D+04
     .424800000000D+06 -.141561031342D-06  .324588474470D+00  .838190317154D-07
     .949689946513D+00  .162812500000D+03  .704164448076D+00 -.796568894578D-08
    -.354300472323D-09  .100000000000D+01  .163600000000D+04  .000000000000D+00
     .340000000000D+01  .000000000000D+00 -.232830643654D-08  .470000000000D+02
     .417606000000D+06  .400000000000D+01
11 11  5 19 22  0  0.0 -.152251683176D-03 -.318323145621D-11  .000000000000D+00
     .100000000000D+03 -.650000000000D+01  .646026909614D-08 -.198629710360D+01
    -.339001417160D-06  .117237005616D-01  .441633164883D-05  .515365720749D+04
     .424800000000D+06  .143423676491D-06 -.997381789801D+00 -.100582838058D-06
     .887633023033D+00  .252906250000D+03  .929251421474D+00 -.880750972528D-08
    -.210723063176D-10  .100000000000D+01  .163600000000D+04  .000000000000D+00
     .240000000000D+01  .000000000000D+00 -.116415321827D-07  .100000000000D+03
     .417606000000D+06  .400000000000D+01
12 11  5 19 22  0  0.0 -.343518331647D-05  .272848410532D-11  .000000000000D+00
     .930000000000D+02 -.124812500000D+03  .392480634108D-08 -.222788010803D+01
    -.648200511932D-05  .373276718892D-02  .108331441879D-04  .515375632477D+04
     .424800000000D+06 -.102445483208D-06 -.282201547522D+01 -.745058059692D-07
     .975467745107D+00  .174656250000D+03 -.186449873266D+00 -.767889128522D-08
     .414302971667D-10  .100000000000D+01  .163600000000D+04  .000000000000D+00
     .240000000000D+01  .000000000000D+00 -.121071934700D-07  .930000000000D+02
     .417606000000D+06  .400000000000D+01
